[{"OBJECT_NAME":"BISONSAT","OBJECT_ID":"2015-058L","EPOCH":"2026-03-09T11:49:35.353056","MEAN_MOTION":15.13791398,"ECCENTRICITY":0.00792382,"INCLINATION":64.7598,"RA_OF_ASC_NODE":135.3937,"ARG_OF_PERICENTER":90.6713,"MEAN_ANOMALY":270.349,"EPHEMERIS_TYPE":0,"CLASSIFICATION_TYPE":"U","NORAD_CAT_ID":40974,"ELEMENT_SET_NO":999,"REV_AT_EPOCH":10051,"BSTAR":0.0006711096,"MEAN_MOTION_DOT":0.00012971,"MEAN_MOTION_DDOT":0},{"OBJECT_NAME":"STARLINK-32641","OBJECT_ID":"2024-231U","EPOCH":"2026-03-09T15:52:03.978624","MEAN_MOTION":15.30198416,"ECCENTRICITY":9.691e-5,"INCLINATION":53.1583,"RA_OF_ASC_NODE":207.0009,"ARG_OF_PERICENTER":84.516,"MEAN_ANOMALY":275.5952,"EPHEMERIS_TYPE":0,"CLASSIFICATION_TYPE":"U","NORAD_CAT_ID":62236,"ELEMENT_SET_NO":999,"REV_AT_EPOCH":7193,"BSTAR":0.00054213083,"MEAN_MOTION_DOT":0.0001573,"MEAN_MOTION_DDOT":0}]
